From:	Horizons Ephemeris System <horizons@ssd.jpl.nasa.gov>
Sent:	Wednesday, March 4, 2020 9:59 AM
Subject:	[Horizons] MAJOR BODY #C(usr={0.,10.,.600^G}@301)_T(301) (1/1)

 Automated mail xmit by MAIL_REQUEST, PID= 5131 Wed Mar  4 07:58:53 2020
++++++++++++++++++++++++++++++++ (part 1 of 1)  +++++++++++++++++++++++++++++++
*******************************************************************************
 Revised: July 31, 2013             Moon / (Earth)                          301
 
 GEOPHYSICAL DATA (updated 2018-Aug-15):
  Vol. mean radius, km  = 1737.53+-0.03    Mass, x10^22 kg       =    7.349
  Radius (gravity), km  = 1738.0           Surface emissivity    =    0.92
  Radius (IAU), km      = 1737.4           GM, km^3/s^2          = 4902.800066
  Density, g/cm^3       =    3.3437        GM 1-sigma, km^3/s^2  =  +-0.0001  
  V(1,0)                =   +0.21          Surface accel., m/s^2 =    1.62
  Earth/Moon mass ratio = 81.3005690769    Farside crust. thick. = ~80 - 90 km
  Mean crustal density  = 2.97+-.07 g/cm^3 Nearside crust. thick.= 58+-8 km 
  Heat flow, Apollo 15  = 3.1+-.6 mW/m^2   Mean angular diameter = 31'05.2"
  Heat flow, Apollo 17  = 2.2+-.5 mW/m^2   Sid. rot. rate, rad/s = 0.0000026617
  Geometric Albedo      = 0.12             Mean solar day        = 29.5306 d
  Obliquity to orbit    = 6.67 deg         Orbit period          = 27.321582 d
  Semi-major axis, a    = 384400 km        Eccentricity          = 0.05490
  Mean motion, rad/s    = 2.6616995x10^-6  Inclination           = 5.145 deg
  Apsidal period        = 3231.50 d        Nodal period          = 6798.38 d
                                 Perihelion  Aphelion    Mean
  Solar Constant (W/m^2)         1414+-7     1323+-7     1368+-7
  Maximum Planetary IR (W/m^2)   1314        1226        1268
  Minimum Planetary IR (W/m^2)      5.2         5.2         5.2
 *******************************************************************************
 
 
*******************************************************************************
Ephemeris / MAIL_REQUEST Wed Mar  4 07:58:52 2020 Pasadena, USA  / Horizons    
*******************************************************************************
Target body name: Moon (301)                      {source: DE431mx}
Center body name: Moon (301)                      {source: DE431mx}
Center-site name: (user defined site below)
*******************************************************************************
Start time      : A.D. 2020-Jan-01 00:00:00.0000 TDB
Stop  time      : A.D. 2039-Jan-01 00:00:00.0000 TDB
Step-size       : 10000 steps
*******************************************************************************
Center geodetic : 0.00000000,10.0000000,0.6000000 {E-lon(deg),Lat(deg),Alt(km)}
Center cylindric: 0.00000000,1711.59587,301.80053 {E-lon(deg),Dxy(km),Dz(km)}
Center pole/equ : IAU_MOON                        {East-longitude positive}
Center radii    : 1737.4 x 1737.4 x 1737.4 km     {Equator, meridian, pole}    
Output units    : KM-S                                                         
Output type     : GEOMETRIC cartesian states
Output format   : 3 (position, velocity, LT, range, range-rate)
Reference frame : ICRF/J2000.0                                                 
Coordinate systm: Ecliptic and Mean Equinox of Reference Epoch                 
*******************************************************************************
JDTDB
   X     Y     Z
   VX    VY    VZ
   LT    RG    RR
*******************************************************************************
$$SOE
2461914.204000001 = A.D. 2028-May-22 16:53:45.6001 TDB 
   1.166371163056876E+03  1.241297554786107E+03 -3.455469439473945E+02
  -3.313532826168091E-03  3.125763752317190E-03  4.397019441698159E-05
   5.797343974543884E-03  1.738000000000000E+03  2.674947592415330E-19
2461914.898000001 = A.D. 2028-May-23 09:33:07.2001 TDB 
   9.536137890930696E+02  1.412107726566526E+03 -3.423689673768324E+02
  -3.767850014318102E-03  2.559460102238792E-03  6.180366603903342E-05
   5.797343974543885E-03  1.738000000000000E+03 -4.251968934212426E-19
2461915.592000001 = A.D. 2028-May-24 02:12:28.8001 TDB 
   7.164344755469835E+02  1.546935292189371E+03 -3.381668878330698E+02
  -4.126390115042069E-03  1.928124577271768E-03  7.805559709328199E-05
   5.797343974543884E-03  1.738000000000001E+03  4.152157456883495E-19
2461916.286000001 = A.D. 2028-May-24 18:51:50.4001 TDB 
   4.608619876261476E+02  1.642354734876057E+03 -3.330482745661297E+02
  -4.380046898270222E-03  1.247806179316477E-03  9.230874237528992E-05
   5.797343974543886E-03  1.738000000000000E+03  2.854608251607404E-19
2461916.980000001 = A.D. 2028-May-25 11:31:12.0001 TDB 
   1.933921677349218E+02  1.695942250089954E+03 -3.271442400816717E+02
  -4.522380348220115E-03  5.357967356432621E-04  1.041967988342939E-04
   5.797343974543885E-03  1.738000000000000E+03 -1.277586909810306E-19
2461917.674000001 = A.D. 2028-May-26 04:10:33.6001 TDB 
  -7.917717209809919E+01  1.706337220986102E+03 -3.206060880519519E+02
  -4.549779655348988E-03 -1.898085762980511E-04  1.134140914203726E-04
   5.797343974543884E-03  1.738000000000000E+03  6.387934549051532E-20
2461918.368000001 = A.D. 2028-May-26 20:49:55.2001 TDB 
  -3.499189927639183E+02  1.673276678822925E+03 -3.136014263526390E+02
  -4.461554355751646E-03 -9.105709233360585E-04  1.197236770581059E-04
   5.797343974543886E-03  1.738000000000001E+03 -1.676832819126027E-19
2461919.062000001 = A.D. 2028-May-27 13:29:16.8001 TDB 
  -6.119530201334213E+02  1.597601883384543E+03 -3.063098486104360E+02
  -4.259951355904862E-03 -1.608176082594861E-03  1.229635928155221E-04
   5.797343974543884E-03  1.738000000000000E+03  1.317511500741878E-19
2461919.756000001 = A.D. 2028-May-28 06:08:38.4001 TDB 
  -8.586205213644438E+02  1.481236864603428E+03 -2.989183019349271E+02
  -3.950097447935934E-03 -2.264899422765278E-03  1.230510488319466E-04
   5.797343974543886E-03  1.738000000000001E+03 -2.834645956141616E-19
2461920.450000001 = A.D. 2028-May-28 22:48:00.0001 TDB 
  -1.083653432863386E+03  1.327139476378327E+03 -2.916162678618276E+02
  -3.539868798076235E-03 -2.864055831118175E-03  1.199844547403967E-04
   5.797343974543885E-03  1.738000000000001E+03 -6.627482094640964E-19
2461921.144000001 = A.D. 2028-May-29 15:27:21.6001 TDB 
  -1.281333551729993E+03  1.139226209305090E+03 -2.845908874917785E+02
  -3.039690732628580E-03 -3.390423198816986E-03  1.138432581484071E-04
   5.797343974543884E-03  1.738000000000000E+03 -2.874570547073189E-19
2461921.838000001 = A.D. 2028-May-30 08:06:43.2001 TDB 
  -1.446637755110472E+03  9.222726731826376E+02 -2.780221606086228E+02
  -2.462272905220009E-03 -3.830628746541370E-03  1.047856543883868E-04
   5.797343974543885E-03  1.738000000000000E+03  4.651214843528147E-19
2461922.532000001 = A.D. 2028-May-31 00:46:04.8001 TDB 
  -1.575365566389795E+03  6.817922759231458E+02 -2.720783429913139E+02
  -1.822286561093708E-03 -4.173488413406416E-03  9.304429102418698E-05
   5.797343974543884E-03  1.738000000000000E+03 -6.867029640230397E-19
2461923.226000001 = A.D. 2028-May-31 17:25:26.4001 TDB 
  -1.664245834641092E+03  4.238961772539267E+02 -2.669116572749974E+02
  -1.135992076449759E-03 -4.410290720823102E-03  7.892013595987195E-05
   5.797343974543885E-03  1.738000000000000E+03  3.593213183841487E-20
2461923.920000001 = A.D. 2028-Jun-01 10:04:48.0001 TDB 
  -1.711019822849547E+03  1.551380694454372E+02 -2.626544216735177E+02
  -4.208262059988346E-04 -4.535017928380258E-03  6.277470611063397E-05
   5.797343974543885E-03  1.738000000000000E+03 -5.789065685077951E-20
2461924.614000001 = A.D. 2028-Jun-02 02:44:09.6001 TDB 
  -1.714498597794893E+03 -1.176522787327546E+02 -2.594156885547517E+02
   3.050405118061269E-04 -4.544498884721504E-03  4.502086897200351E-05
   5.797343974543886E-03  1.738000000000000E+03 -2.694909887881115E-20
2461925.308000001 = A.D. 2028-Jun-02 19:23:31.2001 TDB 
  -1.674593264973401E+03 -3.875424942183259E+02 -2.572784718564036E+02
   1.023164990205445E-03 -4.438489701912656E-03  2.611243777411796E-05
   5.797343974543885E-03  1.738000000000000E+03  3.892647615828277E-20
2461926.002000001 = A.D. 2028-Jun-03 12:02:52.8001 TDB 
  -1.592317279146275E+03 -6.476736894098231E+02 -2.562976288974895E+02
   1.715299798009536E-03 -4.219680203152283E-03  6.532787781665054E-06
   5.797343974543886E-03  1.738000000000001E+03  5.576966295753973E-20
2461926.696000001 = A.D. 2028-Jun-04 04:42:14.4001 TDB 
  -1.469760767776934E+03 -8.914347040372900E+02 -2.564984482247575E+02
   2.363856482780266E-03 -3.893625965366733E-03 -1.321726895609204E-05
   5.797343974543886E-03  1.738000000000001E+03  5.412277358161239E-19
2461927.390000001 = A.D. 2028-Jun-04 21:21:36.0001 TDB 
  -1.310037513031727E+03 -1.112630079200296E+03 -2.578759804797492E+02
   2.952352283306617E-03 -3.468607653814273E-03 -3.263209788968019E-05
   5.797343974543885E-03  1.738000000000000E+03  2.495286933223255E-20
2461928.084000001 = A.D. 2028-Jun-05 14:00:57.6001 TDB 
  -1.117205930409081E+03 -1.305637500799565E+03 -2.603951335271958E+02
   3.465828914566885E-03 -2.955421179085117E-03 -5.121407180676946E-05
   5.797343974543886E-03  1.738000000000000E+03  4.930686980049151E-19
2461928.778000001 = A.D. 2028-Jun-06 06:40:19.2001 TDB 
  -8.961660411683939E+02 -1.465550714099936E+03 -2.639915359585188E+02
   3.891232803956540E-03 -2.367103953140595E-03 -6.848631811885871E-05
   5.797343974543886E-03  1.738000000000001E+03  2.595098410552185E-19
2461929.472000001 = A.D. 2028-Jun-06 23:19:40.8001 TDB 
  -6.525350450450675E+02 -1.588304276794124E+03 -2.685731544766311E+02
   4.217747119287095E-03 -1.718604137727855E-03 -8.400506166539583E-05
   5.797343974543884E-03  1.738000000000000E+03 -1.197737727947162E-19
